[Satellite]
VERSION=1.1
NAME=THAICOM 4
NICKNAME=THAICOM 4
TLE1=1 28786U 05028A   15053.76346220 -.00000388  00000-0  00000+0 0  9999
TLE2=2 28786   0.0072 144.1311 0002145 163.4052 239.1037  1.00269802 34909
